STARLINK-36237          
1 68337U 26059S   26092.16670139 -.00016187  00000+0 -78668-4 0  9994
2 68337  53.1598 245.0919 0000962  93.6531  85.0900 15.80860574  2811
STARLINK-36254          
1 68338U 26059T   26092.16670139 -.00051885  00000+0 -26087-3 0  9996
2 68338  53.1596 245.0742 0001094  84.6958 102.5834 15.80876027  2815
STARLINK-37200          
1 68339U 26059U   26092.16670139  .00057496  00000+0  29338-3 0  9991
2 68339  53.1596 245.0831 0000839 103.6165  79.3982 15.80837327  2818
STARLINK-37185          
1 68340U 26059V   26092.16670139 -.00085140  00000+0 -43175-3 0  9997
2 68340  53.1597 245.0656 0000860  72.8302 118.7185 15.80889742  2811
STARLINK-37181          
1 68341U 26059W   26092.16670139  .00001421  00000+0  10739-4 0  9997
2 68341  53.1597 245.0563 0001151  59.3890 136.4329 15.80867171  2814
STARLINK-37192          
1 68342U 26059X   26092.16670139 -.00112957  00000+0 -57533-3 0  9999
2 68342  53.1595 245.0389 0001048  82.5670 121.7948 15.80907593  2815
STARLINK-37158          
1 68343U 26059Y   26092.16670139 -.00044777  00000+0 -22432-3 0  9994
2 68343  53.1597 245.0300 0000925  58.2108 150.4179 15.80890411  2815
STARLINK-36380          
1 68344U 26059Z   26092.16670139 -.00017124  00000+0 -83397-4 0  9999
2 68344  53.1597 245.0479 0000571  29.7870 170.3054 15.80873131  2812
STARLINK-37214          
1 68345U 26059AA  26092.16670139 -.00058881  00000+0 -29666-3 0  9993
2 68345  53.1595 245.0123 0000493  67.6823 149.4975 15.80885108  2815
STARLINK-37169          
1 68346U 26059AB  26092.16670139 -.00070272  00000+0 -35501-3 0  9997
2 68346  53.1594 245.0030 0000719  92.9238 128.5136 15.80896790  2810
STARLINK-37136          
1 68347U 26059AC  26092.16670139  .00030393  00000+0  15718-3 0  9994
2 68347  53.1596 244.9944 0001192  79.5926 146.1290 15.80846044  2810
STARLINK-37182          
1 68348U 26059AD  26092.16670139 -.00002860  00000+0 -10945-4 0  9993
2 68348  53.1595 245.0211 0001031  81.6886 131.2037 15.80886363  2812
