CCSDS_OMM_VERS = 2.0
CREATION_DATE  = 
ORIGINATOR     = 

OBJECT_NAME    = STARLINK-36237
OBJECT_ID      = 2026-059S
CENTER_NAME    = EARTH
REF_FRAME      = TEME
TIME_SYSTEM    = UTC
MEAN_ELEMENT_THEORY = SGP/SGP4

EPOCH          = 2026-04-02T04:00:03.000096
MEAN_MOTION    = 15.80860574
ECCENTRICITY   = .0000962
INCLINATION    = 53.1598
RA_OF_ASC_NODE = 245.0919
ARG_OF_PERICENTER = 93.6531
MEAN_ANOMALY   = 85.0900

EPHEMERIS_TYPE = 0
CLASSIFICATION_TYPE = U
NORAD_CAT_ID   = 68337
ELEMENT_SET_NO = 999
REV_AT_EPOCH   = 281
BSTAR          = -.78668E-4
MEAN_MOTION_DOT = -.16187E-3
MEAN_MOTION_DDOT = 0

CCSDS_OMM_VERS = 2.0
CREATION_DATE  = 
ORIGINATOR     = 

OBJECT_NAME    = STARLINK-36254
OBJECT_ID      = 2026-059T
CENTER_NAME    = EARTH
REF_FRAME      = TEME
TIME_SYSTEM    = UTC
MEAN_ELEMENT_THEORY = SGP/SGP4

EPOCH          = 2026-04-02T04:00:03.000096
MEAN_MOTION    = 15.80876027
ECCENTRICITY   = .0001094
INCLINATION    = 53.1596
RA_OF_ASC_NODE = 245.0742
ARG_OF_PERICENTER = 84.6958
MEAN_ANOMALY   = 102.5834

EPHEMERIS_TYPE = 0
CLASSIFICATION_TYPE = U
NORAD_CAT_ID   = 68338
ELEMENT_SET_NO = 999
REV_AT_EPOCH   = 281
BSTAR          = -.26087E-3
MEAN_MOTION_DOT = -.51885E-3
MEAN_MOTION_DDOT = 0

CCSDS_OMM_VERS = 2.0
CREATION_DATE  = 
ORIGINATOR     = 

OBJECT_NAME    = STARLINK-37200
OBJECT_ID      = 2026-059U
CENTER_NAME    = EARTH
REF_FRAME      = TEME
TIME_SYSTEM    = UTC
MEAN_ELEMENT_THEORY = SGP/SGP4

EPOCH          = 2026-04-02T04:00:03.000096
MEAN_MOTION    = 15.80837327
ECCENTRICITY   = .0000839
INCLINATION    = 53.1596
RA_OF_ASC_NODE = 245.0831
ARG_OF_PERICENTER = 103.6165
MEAN_ANOMALY   = 79.3982

EPHEMERIS_TYPE = 0
CLASSIFICATION_TYPE = U
NORAD_CAT_ID   = 68339
ELEMENT_SET_NO = 999
REV_AT_EPOCH   = 281
BSTAR          = .29338E-3
MEAN_MOTION_DOT = .57496E-3
MEAN_MOTION_DDOT = 0

CCSDS_OMM_VERS = 2.0
CREATION_DATE  = 
ORIGINATOR     = 

OBJECT_NAME    = STARLINK-37185
OBJECT_ID      = 2026-059V
CENTER_NAME    = EARTH
REF_FRAME      = TEME
TIME_SYSTEM    = UTC
MEAN_ELEMENT_THEORY = SGP/SGP4

EPOCH          = 2026-04-02T04:00:03.000096
MEAN_MOTION    = 15.80889742
ECCENTRICITY   = .000086
INCLINATION    = 53.1597
RA_OF_ASC_NODE = 245.0656
ARG_OF_PERICENTER = 72.8302
MEAN_ANOMALY   = 118.7185

EPHEMERIS_TYPE = 0
CLASSIFICATION_TYPE = U
NORAD_CAT_ID   = 68340
ELEMENT_SET_NO = 999
REV_AT_EPOCH   = 281
BSTAR          = -.43175E-3
MEAN_MOTION_DOT = -.8514E-3
MEAN_MOTION_DDOT = 0

CCSDS_OMM_VERS = 2.0
CREATION_DATE  = 
ORIGINATOR     = 

OBJECT_NAME    = STARLINK-37181
OBJECT_ID      = 2026-059W
CENTER_NAME    = EARTH
REF_FRAME      = TEME
TIME_SYSTEM    = UTC
MEAN_ELEMENT_THEORY = SGP/SGP4

EPOCH          = 2026-04-02T04:00:03.000096
MEAN_MOTION    = 15.80867171
ECCENTRICITY   = .0001151
INCLINATION    = 53.1597
RA_OF_ASC_NODE = 245.0563
ARG_OF_PERICENTER = 59.3890
MEAN_ANOMALY   = 136.4329

EPHEMERIS_TYPE = 0
CLASSIFICATION_TYPE = U
NORAD_CAT_ID   = 68341
ELEMENT_SET_NO = 999
REV_AT_EPOCH   = 281
BSTAR          = .10739E-4
MEAN_MOTION_DOT = .1421E-4
MEAN_MOTION_DDOT = 0

CCSDS_OMM_VERS = 2.0
CREATION_DATE  = 
ORIGINATOR     = 

OBJECT_NAME    = STARLINK-37192
OBJECT_ID      = 2026-059X
CENTER_NAME    = EARTH
REF_FRAME      = TEME
TIME_SYSTEM    = UTC
MEAN_ELEMENT_THEORY = SGP/SGP4

EPOCH          = 2026-04-02T04:00:03.000096
MEAN_MOTION    = 15.80907593
ECCENTRICITY   = .0001048
INCLINATION    = 53.1595
RA_OF_ASC_NODE = 245.0389
ARG_OF_PERICENTER = 82.5670
MEAN_ANOMALY   = 121.7948

EPHEMERIS_TYPE = 0
CLASSIFICATION_TYPE = U
NORAD_CAT_ID   = 68342
ELEMENT_SET_NO = 999
REV_AT_EPOCH   = 281
BSTAR          = -.57533E-3
MEAN_MOTION_DOT = -.112957E-2
MEAN_MOTION_DDOT = 0

CCSDS_OMM_VERS = 2.0
CREATION_DATE  = 
ORIGINATOR     = 

OBJECT_NAME    = STARLINK-37158
OBJECT_ID      = 2026-059Y
CENTER_NAME    = EARTH
REF_FRAME      = TEME
TIME_SYSTEM    = UTC
MEAN_ELEMENT_THEORY = SGP/SGP4

EPOCH          = 2026-04-02T04:00:03.000096
MEAN_MOTION    = 15.80890411
ECCENTRICITY   = .0000925
INCLINATION    = 53.1597
RA_OF_ASC_NODE = 245.0300
ARG_OF_PERICENTER = 58.2108
MEAN_ANOMALY   = 150.4179

EPHEMERIS_TYPE = 0
CLASSIFICATION_TYPE = U
NORAD_CAT_ID   = 68343
ELEMENT_SET_NO = 999
REV_AT_EPOCH   = 281
BSTAR          = -.22432E-3
MEAN_MOTION_DOT = -.44777E-3
MEAN_MOTION_DDOT = 0

CCSDS_OMM_VERS = 2.0
CREATION_DATE  = 
ORIGINATOR     = 

OBJECT_NAME    = STARLINK-36380
OBJECT_ID      = 2026-059Z
CENTER_NAME    = EARTH
REF_FRAME      = TEME
TIME_SYSTEM    = UTC
MEAN_ELEMENT_THEORY = SGP/SGP4

EPOCH          = 2026-04-02T04:00:03.000096
MEAN_MOTION    = 15.80873131
ECCENTRICITY   = .0000571
INCLINATION    = 53.1597
RA_OF_ASC_NODE = 245.0479
ARG_OF_PERICENTER = 29.7870
MEAN_ANOMALY   = 170.3054

EPHEMERIS_TYPE = 0
CLASSIFICATION_TYPE = U
NORAD_CAT_ID   = 68344
ELEMENT_SET_NO = 999
REV_AT_EPOCH   = 281
BSTAR          = -.83397E-4
MEAN_MOTION_DOT = -.17124E-3
MEAN_MOTION_DDOT = 0

CCSDS_OMM_VERS = 2.0
CREATION_DATE  = 
ORIGINATOR     = 

OBJECT_NAME    = STARLINK-37214
OBJECT_ID      = 2026-059AA
CENTER_NAME    = EARTH
REF_FRAME      = TEME
TIME_SYSTEM    = UTC
MEAN_ELEMENT_THEORY = SGP/SGP4

EPOCH          = 2026-04-02T04:00:03.000096
MEAN_MOTION    = 15.80885108
ECCENTRICITY   = .0000493
INCLINATION    = 53.1595
RA_OF_ASC_NODE = 245.0123
ARG_OF_PERICENTER = 67.6823
MEAN_ANOMALY   = 149.4975

EPHEMERIS_TYPE = 0
CLASSIFICATION_TYPE = U
NORAD_CAT_ID   = 68345
ELEMENT_SET_NO = 999
REV_AT_EPOCH   = 281
BSTAR          = -.29666E-3
MEAN_MOTION_DOT = -.58881E-3
MEAN_MOTION_DDOT = 0

CCSDS_OMM_VERS = 2.0
CREATION_DATE  = 
ORIGINATOR     = 

OBJECT_NAME    = STARLINK-37169
OBJECT_ID      = 2026-059AB
CENTER_NAME    = EARTH
REF_FRAME      = TEME
TIME_SYSTEM    = UTC
MEAN_ELEMENT_THEORY = SGP/SGP4

EPOCH          = 2026-04-02T04:00:03.000096
MEAN_MOTION    = 15.80896790
ECCENTRICITY   = .0000719
INCLINATION    = 53.1594
RA_OF_ASC_NODE = 245.0030
ARG_OF_PERICENTER = 92.9238
MEAN_ANOMALY   = 128.5136

EPHEMERIS_TYPE = 0
CLASSIFICATION_TYPE = U
NORAD_CAT_ID   = 68346
ELEMENT_SET_NO = 999
REV_AT_EPOCH   = 281
BSTAR          = -.35501E-3
MEAN_MOTION_DOT = -.70272E-3
MEAN_MOTION_DDOT = 0

CCSDS_OMM_VERS = 2.0
CREATION_DATE  = 
ORIGINATOR     = 

OBJECT_NAME    = STARLINK-37136
OBJECT_ID      = 2026-059AC
CENTER_NAME    = EARTH
REF_FRAME      = TEME
TIME_SYSTEM    = UTC
MEAN_ELEMENT_THEORY = SGP/SGP4

EPOCH          = 2026-04-02T04:00:03.000096
MEAN_MOTION    = 15.80846044
ECCENTRICITY   = .0001192
INCLINATION    = 53.1596
RA_OF_ASC_NODE = 244.9944
ARG_OF_PERICENTER = 79.5926
MEAN_ANOMALY   = 146.1290

EPHEMERIS_TYPE = 0
CLASSIFICATION_TYPE = U
NORAD_CAT_ID   = 68347
ELEMENT_SET_NO = 999
REV_AT_EPOCH   = 281
BSTAR          = .15718E-3
MEAN_MOTION_DOT = .30393E-3
MEAN_MOTION_DDOT = 0

CCSDS_OMM_VERS = 2.0
CREATION_DATE  = 
ORIGINATOR     = 

OBJECT_NAME    = STARLINK-37182
OBJECT_ID      = 2026-059AD
CENTER_NAME    = EARTH
REF_FRAME      = TEME
TIME_SYSTEM    = UTC
MEAN_ELEMENT_THEORY = SGP/SGP4

EPOCH          = 2026-04-02T04:00:03.000096
MEAN_MOTION    = 15.80886363
ECCENTRICITY   = .0001031
INCLINATION    = 53.1595
RA_OF_ASC_NODE = 245.0211
ARG_OF_PERICENTER = 81.6886
MEAN_ANOMALY   = 131.2037

EPHEMERIS_TYPE = 0
CLASSIFICATION_TYPE = U
NORAD_CAT_ID   = 68348
ELEMENT_SET_NO = 999
REV_AT_EPOCH   = 281
BSTAR          = -.10945E-4
MEAN_MOTION_DOT = -.286E-4
MEAN_MOTION_DDOT = 0

